[{"OBJECT_NAME":"YAOGAN-30 02B","OBJECT_ID":"2017-058B","EPOCH":"2026-03-09T22:20:48.449184","MEAN_MOTION":15.02255785,"ECCENTRICITY":0.00019399,"INCLINATION":34.9967,"RA_OF_ASC_NODE":274.9762,"ARG_OF_PERICENTER":191.875,"MEAN_ANOMALY":168.1912,"EPHEMERIS_TYPE":0,"CLASSIFICATION_TYPE":"U","NORAD_CAT_ID":42946,"ELEMENT_SET_NO":999,"REV_AT_EPOCH":46092,"BSTAR":0.0003113928,"MEAN_MOTION_DOT":4.165e-5,"MEAN_MOTION_DDOT":0},{"OBJECT_NAME":"STARLINK-5688","OBJECT_ID":"2023-015AG","EPOCH":"2026-03-09T00:07:54.086304","MEAN_MOTION":15.02536651,"ECCENTRICITY":0.00015668,"INCLINATION":43.0057,"RA_OF_ASC_NODE":317.3377,"ARG_OF_PERICENTER":265.3428,"MEAN_ANOMALY":94.7236,"EPHEMERIS_TYPE":0,"CLASSIFICATION_TYPE":"U","NORAD_CAT_ID":55479,"ELEMENT_SET_NO":999,"REV_AT_EPOCH":17079,"BSTAR":2.7848221e-5,"MEAN_MOTION_DOT":1.72e-6,"MEAN_MOTION_DDOT":0}]
